FENGYUN 1C DEB          
1 32243U 99025CWR 17345.23090195  .00000803  00000-0  48055-3 0  9994
2 32243  98.3202 270.8738 0322659 344.9998  14.1762 13.86615874529600
